[
    {
        "Altitude(m)": 570857.7877326142,
        "Argument of Periapsis(deg)": -0.007534386927657468,
        "Eccentricity": 0.0,
        "Inclination(deg)": 97.0,
        "Latitude(deg)": -19.237856672902193,
        "Longitude(deg)": 21.68130945270482,
        "Mean Anomaly(deg)": -19.150452243604217,
        "RAAN(deg)": 120.00198235120617,
        "Satellite Name": "Starlink Shell 3 1869",
        "Satellite Number": 1869,
        "Semi-Major Axis(m)": 6938478.169268562,
        "Time(s)": 190
    },
    {
        "Altitude(m)": 570660.3716384586,
        "Argument of Periapsis(deg)": -0.007930933608060494,
        "Eccentricity": 0.0,
        "Inclination(deg)": 97.0,
        "Latitude(deg)": -18.61528154500393,
        "Longitude(deg)": 21.55459175584142,
        "Mean Anomaly(deg)": -18.524976045899106,
        "RAAN(deg)": 120.00208668548017,
        "Satellite Name": "Starlink Shell 3 1869",
        "Satellite Number": 1869,
        "Semi-Major Axis(m)": 6938478.169268562,
        "Time(s)": 200
    },
    {
        "Altitude(m)": 570466.0702188666,
        "Argument of Periapsis(deg)": -0.008327480288463517,
        "Eccentricity": 0.0,
        "Inclination(deg)": 97.0,
        "Latitude(deg)": -17.99260246612165,
        "Longitude(deg)": 21.42848561467279,
        "Mean Anomaly(deg)": -17.8994998481941,
        "RAAN(deg)": 120.00219101975418,
        "Satellite Name": "Starlink Shell 3 1869",
        "Satellite Number": 1869,
        "Semi-Major Axis(m)": 6938478.169268562,
        "Time(s)": 210
    },
    {
        "Altitude(m)": 570274.9493967938,
        "Argument of Periapsis(deg)": -0.008724026968866542,
        "Eccentricity": 0.0,
        "Inclination(deg)": 97.0,
        "Latitude(deg)": -17.369822483381423,
        "Longitude(deg)": 21.30296478797508,
        "Mean Anomaly(deg)": -17.27402365048899,
        "RAAN(deg)": 120.00229535402818,
        "Satellite Name": "Starlink Shell 3 1869",
        "Satellite Number": 1869,
        "Semi-Major Axis(m)": 6938478.169268562,
        "Time(s)": 220
    },
    {
        "Altitude(m)": 570087.0734835438,
        "Argument of Periapsis(deg)": -0.009120573649269567,
        "Eccentricity": 0.0,
        "Inclination(deg)": 97.0,
        "Latitude(deg)": -16.746944632596865,
        "Longitude(deg)": 21.178003660645526,
        "Mean Anomaly(deg)": -16.64854745278398,
        "RAAN(deg)": 120.0023996883022,
        "Satellite Name": "Starlink Shell 3 1869",
        "Satellite Number": 1869,
        "Semi-Major Axis(m)": 6938478.169268562,
        "Time(s)": 230
    },
    {
        "Altitude(m)": 569902.5051497134,
        "Argument of Periapsis(deg)": -0.009517120329672592,
        "Eccentricity": 0.0,
        "Inclination(deg)": 97.0,
        "Latitude(deg)": -16.123971939572773,
        "Longitude(deg)": 21.053577715064804,
        "Mean Anomaly(deg)": -16.023071255078985,
        "RAAN(deg)": 120.0025040225762,
        "Satellite Name": "Starlink Shell 3 1869",
        "Satellite Number": 1869,
        "Semi-Major Axis(m)": 6938478.169268562,
        "Time(s)": 240
    },
    {
        "Altitude(m)": 569721.3053969991,
        "Argument of Periapsis(deg)": -0.009913667010075618,
        "Eccentricity": 0.0,
        "Inclination(deg)": 97.0,
        "Latitude(deg)": -15.500907421313023,
        "Longitude(deg)": 20.92966249096256,
        "Mean Anomaly(deg)": -15.397595057373877,
        "RAAN(deg)": 120.00260835685022,
        "Satellite Name": "Starlink Shell 3 1869",
        "Satellite Number": 1869,
        "Semi-Major Axis(m)": 6938478.169268562,
        "Time(s)": 250
    },
    {
        "Altitude(m)": 569543.5335307834,
        "Argument of Periapsis(deg)": -0.010310213690478642,
        "Eccentricity": 0.0,
        "Inclination(deg)": 97.0,
        "Latitude(deg)": -14.877754087131699,
        "Longitude(deg)": 20.806234059444062,
        "Mean Anomaly(deg)": -14.772118859668868,
        "RAAN(deg)": 120.00271269112422,
        "Satellite Name": "Starlink Shell 3 1869",
        "Satellite Number": 1869,
        "Semi-Major Axis(m)": 6938478.169268562,
        "Time(s)": 260
    },
    {
        "Altitude(m)": 569369.2471335722,
        "Argument of Periapsis(deg)": -0.010706760370881667,
        "Eccentricity": 0.0,
        "Inclination(deg)": 97.0,
        "Latitude(deg)": -14.254514939675028,
        "Longitude(deg)": 20.683269498222305,
        "Mean Anomaly(deg)": -14.146642661963758,
        "RAAN(deg)": 120.00281702539824,
        "Satellite Name": "Starlink Shell 3 1869",
        "Satellite Number": 1869,
        "Semi-Major Axis(m)": 6938478.169268562,
        "Time(s)": 270
    },
    {
        "Altitude(m)": 569198.5020392739,
        "Argument of Periapsis(deg)": -0.011103307051284692,
        "Eccentricity": 0.0,
        "Inclination(deg)": 97.0,
        "Latitude(deg)": -13.631192975864545,
        "Longitude(deg)": 20.560745855104198,
        "Mean Anomaly(deg)": -13.521166464258764,
        "RAAN(deg)": 120.00292135967224,
        "Satellite Name": "Starlink Shell 3 1869",
        "Satellite Number": 1869,
        "Semi-Major Axis(m)": 6938478.169268562,
        "Time(s)": 280
    },
    {
        "Altitude(m)": 569031.3523083634,
        "Argument of Periapsis(deg)": -0.011499853731687715,
        "Eccentricity": 0.0,
        "Inclination(deg)": 97.0,
        "Latitude(deg)": -13.007791187757888,
        "Longitude(deg)": 20.438640625403004,
        "Mean Anomaly(deg)": -12.895690266553755,
        "RAAN(deg)": 120.00302569394627,
        "Satellite Name": "Starlink Shell 3 1869",
        "Satellite Number": 1869,
        "Semi-Major Axis(m)": 6938478.169268562,
        "Time(s)": 290
    },
    {
        "Altitude(m)": 568867.8502039133,
        "Argument of Periapsis(deg)": -0.011896400412090741,
        "Eccentricity": 0.0,
        "Inclination(deg)": 97.0,
        "Latitude(deg)": -12.384312563337557,
        "Longitude(deg)": 20.316932230335222,
        "Mean Anomaly(deg)": -12.270214068848722,
        "RAAN(deg)": 120.00313002822024,
        "Satellite Name": "Starlink Shell 3 1869",
        "Satellite Number": 1869,
        "Semi-Major Axis(m)": 6938478.169268562,
        "Time(s)": 300
    },
    {
        "Altitude(m)": 568708.0461685002,
        "Argument of Periapsis(deg)": -0.012292947092493765,
        "Eccentricity": 0.0,
        "Inclination(deg)": 97.0,
        "Latitude(deg)": -11.760760087233093,
        "Longitude(deg)": 20.195598983462315,
        "Mean Anomaly(deg)": -11.644737871143613,
        "RAAN(deg)": 120.00323436249427,
        "Satellite Name": "Starlink Shell 3 1869",
        "Satellite Number": 1869,
        "Semi-Major Axis(m)": 6938478.169268562,
        "Time(s)": 310
    },
    {
        "Altitude(m)": 568551.9888020464,
        "Argument of Periapsis(deg)": -0.012689493772896788,
        "Eccentricity": 0.0,
        "Inclination(deg)": 97.0,
        "Latitude(deg)": -11.137136741376382,
        "Longitude(deg)": 20.074619570861252,
        "Mean Anomaly(deg)": -11.019261673438516,
        "RAAN(deg)": 120.00333869676827,
        "Satellite Name": "Starlink Shell 3 1869",
        "Satellite Number": 1869,
        "Semi-Major Axis(m)": 6938478.169268562,
        "Time(s)": 320
    },
    {
        "Altitude(m)": 568399.7248405893,
        "Argument of Periapsis(deg)": -0.013086040453299813,
        "Eccentricity": 0.0,
        "Inclination(deg)": 97.0,
        "Latitude(deg)": -10.513445505596383,
        "Longitude(deg)": 19.953973532091524,
        "Mean Anomaly(deg)": -10.393785475733509,
        "RAAN(deg)": 120.00344303104228,
        "Satellite Name": "Starlink Shell 3 1869",
        "Satellite Number": 1869,
        "Semi-Major Axis(m)": 6938478.169268562,
        "Time(s)": 330
    },
    {
        "Altitude(m)": 568251.2991359362,
        "Argument of Periapsis(deg)": -0.01348258713370284,
        "Eccentricity": 0.0,
        "Inclination(deg)": 97.0,
        "Latitude(deg)": -9.889689358160181,
        "Longitude(deg)": 19.83364022903019,
        "Mean Anomaly(deg)": -9.768309278028502,
        "RAAN(deg)": 120.00354736531628,
        "Satellite Name": "Starlink Shell 3 1869",
        "Satellite Number": 1869,
        "Semi-Major Axis(m)": 6938478.169268562,
        "Time(s)": 340
    },
    {
        "Altitude(m)": 568106.7546363075,
        "Argument of Periapsis(deg)": -0.013879133814105863,
        "Eccentricity": 0.0,
        "Inclination(deg)": 97.0,
        "Latitude(deg)": -9.265871276259215,
        "Longitude(deg)": 19.713599328266415,
        "Mean Anomaly(deg)": -9.142833080323493,
        "RAAN(deg)": 120.0036516995903,
        "Satellite Name": "Starlink Shell 3 1869",
        "Satellite Number": 1869,
        "Semi-Major Axis(m)": 6938478.169268562,
        "Time(s)": 350
    },
    {
        "Altitude(m)": 567966.1323679137,
        "Argument of Periapsis(deg)": -0.01427568049450889,
        "Eccentricity": 0.0,
        "Inclination(deg)": 97.0,
        "Latitude(deg)": -8.641994236446141,
        "Longitude(deg)": 19.59383128413263,
        "Mean Anomaly(deg)": -8.517356882618499,
        "RAAN(deg)": 120.0037560338643,
        "Satellite Name": "Starlink Shell 3 1869",
        "Satellite Number": 1869,
        "Semi-Major Axis(m)": 6938478.169268562,
        "Time(s)": 360
    },
    {
        "Altitude(m)": 567829.4714175151,
        "Argument of Periapsis(deg)": -0.014672227174911913,
        "Eccentricity": 0.0,
        "Inclination(deg)": 97.0,
        "Latitude(deg)": -8.018061215029075,
        "Longitude(deg)": 19.47431630944959,
        "Mean Anomaly(deg)": -7.891880684913389,
        "RAAN(deg)": 120.00386036813833,
        "Satellite Name": "Starlink Shell 3 1869",
        "Satellite Number": 1869,
        "Semi-Major Axis(m)": 6938478.169268562,
        "Time(s)": 370
    }
]